HAWK-12A                
1 64623U 25138C   26194.53600124  .00001871  00000+0  94059-4 0  9990
2 64623  97.4408 196.8796 0015210  52.0690 308.1917 15.18394684 57866
HAWK-13A                
1 67392U 26004AF  26194.54014850  .00002483  00000+0  12071-3 0  9998
2 67392  97.4444 193.0368 0004000 226.5773 133.5129 15.19350276 27762
HAWK-13C                
1 67393U 26004AG  26194.80343600  .00002463  00000+0  11975-3 0  9996
2 67393  97.4588 193.7180 0003850 229.4921 130.5979 15.19351555 27806
HAWK-13B                
1 67396U 26004AK  26194.53990878  .00002473  00000+0  12021-3 0  9998
2 67396  97.4527 193.2821 0005114 231.6278 128.4498 15.19349481 27766
HAWK-14B                
1 68436U 26067W   26194.84052089  .00002433  00000+0  12152-3 0  9991
2 68436  97.4560 152.9113 0001694   4.7469 355.3781 15.18424410 15987
HAWK-14C                
1 68441U 26067AB  26194.77471902  .00002371  00000+0  11849-3 0  9991
2 68441  97.4497 152.7276 0002719  23.0439 337.0916 15.18423757 15979
HAWK-14A                
1 68448U 26067AJ  26194.77484514  .00002454  00000+0  12254-3 0  9994
2 68448  97.4622 152.9719 0003415  19.2673 340.8689 15.18425454 15976
