{"fetched_at":"2026-07-14T06:34:46.189Z","source":"https://celestrak.org/NORAD/elements/gp.php?NAME=HAWK&FORMAT=JSON","constellation":"hawkeye-360","records":[{"OBJECT_NAME":"HAWK-12A","OBJECT_ID":"2025-138C","EPOCH":"2026-07-13T12:51:50.507136","CLASSIFICATION_TYPE":"U","MEAN_MOTION":15.18394684,"ECCENTRICITY":0.001521,"INCLINATION":97.4408,"RA_OF_ASC_NODE":196.8796,"ARG_OF_PERICENTER":52.069,"MEAN_ANOMALY":308.1917,"EPHEMERIS_TYPE":0,"NORAD_CAT_ID":64623,"ELEMENT_SET_NO":999,"REV_AT_EPOCH":5786,"BSTAR":0.000094059,"MEAN_MOTION_DOT":0.00001871,"MEAN_MOTION_DDOT":0},{"OBJECT_NAME":"HAWK-13A","OBJECT_ID":"2026-004AF","EPOCH":"2026-07-13T12:57:48.830400","CLASSIFICATION_TYPE":"U","MEAN_MOTION":15.19350276,"ECCENTRICITY":0.0004,"INCLINATION":97.4444,"RA_OF_ASC_NODE":193.0368,"ARG_OF_PERICENTER":226.5773,"MEAN_ANOMALY":133.5129,"EPHEMERIS_TYPE":0,"NORAD_CAT_ID":67392,"ELEMENT_SET_NO":999,"REV_AT_EPOCH":2776,"BSTAR":0.00012071,"MEAN_MOTION_DOT":0.00002483,"MEAN_MOTION_DDOT":0},{"OBJECT_NAME":"HAWK-13C","OBJECT_ID":"2026-004AG","EPOCH":"2026-07-13T19:16:56.870400","CLASSIFICATION_TYPE":"U","MEAN_MOTION":15.19351555,"ECCENTRICITY":0.000385,"INCLINATION":97.4588,"RA_OF_ASC_NODE":193.718,"ARG_OF_PERICENTER":229.4921,"MEAN_ANOMALY":130.5979,"EPHEMERIS_TYPE":0,"NORAD_CAT_ID":67393,"ELEMENT_SET_NO":999,"REV_AT_EPOCH":2780,"BSTAR":0.00011975,"MEAN_MOTION_DOT":0.00002463,"MEAN_MOTION_DDOT":0},{"OBJECT_NAME":"HAWK-13B","OBJECT_ID":"2026-004AK","EPOCH":"2026-07-13T12:57:28.118592","CLASSIFICATION_TYPE":"U","MEAN_MOTION":15.19349481,"ECCENTRICITY":0.0005114,"INCLINATION":97.4527,"RA_OF_ASC_NODE":193.2821,"ARG_OF_PERICENTER":231.6278,"MEAN_ANOMALY":128.4498,"EPHEMERIS_TYPE":0,"NORAD_CAT_ID":67396,"ELEMENT_SET_NO":999,"REV_AT_EPOCH":2776,"BSTAR":0.00012021,"MEAN_MOTION_DOT":0.00002473,"MEAN_MOTION_DDOT":0},{"OBJECT_NAME":"HAWK-14B","OBJECT_ID":"2026-067W","EPOCH":"2026-07-13T20:10:21.004896","CLASSIFICATION_TYPE":"U","MEAN_MOTION":15.1842441,"ECCENTRICITY":0.0001694,"INCLINATION":97.456,"RA_OF_ASC_NODE":152.9113,"ARG_OF_PERICENTER":4.7469,"MEAN_ANOMALY":355.3781,"EPHEMERIS_TYPE":0,"NORAD_CAT_ID":68436,"ELEMENT_SET_NO":999,"REV_AT_EPOCH":1598,"BSTAR":0.00012152,"MEAN_MOTION_DOT":0.00002433,"MEAN_MOTION_DDOT":0},{"OBJECT_NAME":"HAWK-14C","OBJECT_ID":"2026-067AB","EPOCH":"2026-07-13T18:35:35.723328","CLASSIFICATION_TYPE":"U","MEAN_MOTION":15.18423757,"ECCENTRICITY":0.0002719,"INCLINATION":97.4497,"RA_OF_ASC_NODE":152.7276,"ARG_OF_PERICENTER":23.0439,"MEAN_ANOMALY":337.0916,"EPHEMERIS_TYPE":0,"NORAD_CAT_ID":68441,"ELEMENT_SET_NO":999,"REV_AT_EPOCH":1597,"BSTAR":0.00011849,"MEAN_MOTION_DOT":0.00002371,"MEAN_MOTION_DDOT":0},{"OBJECT_NAME":"HAWK-14A","OBJECT_ID":"2026-067AJ","EPOCH":"2026-07-13T18:35:46.620096","CLASSIFICATION_TYPE":"U","MEAN_MOTION":15.18425454,"ECCENTRICITY":0.0003415,"INCLINATION":97.4622,"RA_OF_ASC_NODE":152.9719,"ARG_OF_PERICENTER":19.2673,"MEAN_ANOMALY":340.8689,"EPHEMERIS_TYPE":0,"NORAD_CAT_ID":68448,"ELEMENT_SET_NO":999,"REV_AT_EPOCH":1597,"BSTAR":0.00012254,"MEAN_MOTION_DOT":0.00002454,"MEAN_MOTION_DDOT":0}]}
